NORAD_CAT_ID,OBJECT_NAME,OBJECT_TYPE,EPOCH,MEAN_MOTION,ECCENTRICITY,INCLINATION,RA_OF_ASC_NODE,ARG_OF_PERICENTER,MEAN_ANOMALY,BSTAR,MEAN_MOTION_DOT,MEAN_MOTION_DDOT,TLE_LINE0,TLE_LINE1,TLE_LINE2,SEMIMAJOR_AXIS,PERIOD,APOGEE,PERIGEE,DECAYED
53594.0,STARLINK-4681,PAYLOAD,2023-01-24 05:22:29,15.08854882,0.0001151,53.2152,323.848,87.6882,272.4242,0.00095739,0.00014988,0.0,0 STARLINK-4681,1 53594U 22104G   23024.22395311  .00014988  00000-0  95739-3 0  9998,2 53594  53.2152 323.8480 0001151  87.6882 272.4242 15.08854882 22759,6917.835,95.437,540.496,538.904,0.0
53594.0,STARLINK-4681,PAYLOAD,2023-01-25 02:02:30,15.08851068,0.0001264999999999,53.2168,319.9827,90.0585,270.0552,0.0006275,9.716e-05,0.0,0 STARLINK-4681,1 53594U 22104G   23025.08507589  .00009716  00000-0  62750-3 0  9995,2 53594  53.2168 319.9827 0001265  90.0585 270.0552 15.08851068 22886,6917.847,95.437,540.587,538.836,0.0
53594.0,STARLINK-4681,PAYLOAD,2023-01-25 05:13:16,15.08850379,0.0001274999999999,53.2171,319.3867,88.7593,271.3545,0.00078572,0.00012242,0.0,0 STARLINK-4681,1 53594U 22104G   23025.21755559  .00012242  00000-0  78572-3 0  9999,2 53594  53.2171 319.3867 0001275  88.7593 271.3545 15.08850379 24064,6917.849,95.437,540.596,538.832,0.0
53594.0,STARLINK-4681,PAYLOAD,2023-01-26 01:53:17,15.08854013,0.0001322,53.2165,315.5209,86.2875,273.8268,0.00069683,0.00010824,0.0,0 STARLINK-4681,1 53594U 22104G   23026.07867228  .00010824  00000-0  69683-3 0  9998,2 53594  53.2165 315.5209 0001322  86.2875 273.8268 15.08854013 23038,6917.838000000001,95.437,540.617,538.788,0.0
53594.0,STARLINK-4681,PAYLOAD,2023-01-26 22:33:17,15.08849739,0.0001675,53.2166,311.6531,106.3681,253.7495,0.00021414,3.123e-05,0.0,0 STARLINK-4681,1 53594U 22104G   23026.93978962  .00003123  00000-0  21414-3 0  9995,2 53594  53.2166 311.6531 0001675 106.3681 253.7495 15.08849739 23166,6917.851,95.437,540.874,538.557,0.0
53594.0,STARLINK-4681,PAYLOAD,2023-01-27 04:54:50,15.08855852,0.0001408,53.2164,310.4661,67.4419,292.6722,0.00054697,8.432e-05,0.0,0 STARLINK-4681,1 53594U 22104G   23027.20474877  .00008432  00000-0  54697-3 0  9999,2 53594  53.2164 310.4661 0001408  67.4419 292.6722 15.08855852 24366,6917.831999999999,95.437,540.6709999999999,538.7230000000001,0.0
53594.0,STARLINK-4681,PAYLOAD,2023-01-27 19:13:19,15.08824901,0.0001053,53.2163,307.7904,67.2006,292.9098,0.00017948,2.569e-05,0.0,0 STARLINK-4681,1 53594U 22104G   23027.80091598  .00002569  00000-0  17948-3 0  9993,2 53594  53.2163 307.7904 0001053  67.2006 292.9098 15.08824901 23291,6917.927,95.439,540.52,539.063,0.0
53594.0,STARLINK-4681,PAYLOAD,2023-01-28 04:45:38,15.08839927,0.0001253,53.2161,306.0064,76.2098,283.9034,0.0010137,0.00015882,0.0,0 STARLINK-4681,1 53594U 22104G   23028.19835803  .00015882  00000-0  10137-2 0  9995,2 53594  53.2161 306.0064 0001253  76.2098 283.9034 15.08839927 23352,6917.881,95.438,540.612,538.879,0.0
53594.0,STARLINK-4681,PAYLOAD,2023-01-29 04:36:25,15.0885451,0.0001232,53.2157,301.5462,81.3389,278.7743,0.00075785,0.00011799,0.0,0 STARLINK-4681,1 53594U 22104G   23029.19195643  .00011799  00000-0  75785-3 0  9991,2 53594  53.2157 301.5462 0001232  81.3389 278.7743 15.08854510 23507,6917.836,95.437,540.553,538.849,0.0
53594.0,STARLINK-4681,PAYLOAD,2023-01-30 02:51:49,15.08843794,0.0001065,53.2149,297.3818,90.4331,269.6783,0.00037315,5.656e-05,0.0,0 STARLINK-4681,1 53594U 22104G   23030.11931830  .00005656  00000-0  37315-3 0  9993,2 53594  53.2149 297.3818 0001065  90.4331 269.6783 15.08843794 23647,6917.869,95.437,540.471,538.997,0.0
53594.0,STARLINK-4681,PAYLOAD,2023-01-30 21:56:28,15.08816252,0.0001241,53.2155,293.8146,75.9838,284.1292,-2.2617e-05,-6.47e-06,0.0,0 STARLINK-4681,1 53594U 22104G   23030.91421548 -.00000647  00000-0 -22617-4 0  9998,2 53594  53.2155 293.8146 0001241  75.9838 284.1292 15.08816252 24923,6917.953,95.439,540.676,538.959,0.0
53594.0,STARLINK-4681,PAYLOAD,2023-01-31 02:42:37,15.0882521,0.0001238,53.2154,292.9224,89.4387,270.6747,0.00010457,1.376e-05,0.0,0 STARLINK-4681,1 53594U 22104G   23031.11293600  .00001376  00000-0  10457-3 0  9993,2 53594  53.2154 292.9224 0001238  89.4387 270.6747 15.08825210 23797,6917.926,95.438,540.647,538.934,0.0
53594.0,STARLINK-4681,PAYLOAD,2023-01-31 17:01:07,15.08813423,0.0001497,53.2156,290.2468,76.9864,283.1295,0.00019791,2.861e-05,0.0,0 STARLINK-4681,1 53594U 22104G   23031.70911577  .00002861  00000-0  19791-3 0  9998,2 53594  53.2156 290.2468 0001497  76.9864 283.1295 15.08813423 23888,6917.962,95.439,540.862,538.791,0.0
53594.0,STARLINK-4681,PAYLOAD,2023-02-01 02:33:26,15.08840247,0.0001513,53.2158,288.4617,89.0356,271.0809,0.0011382,0.00017873,0.0,0 STARLINK-4681,1 53594U 22104G   23032.10655252  .00017873  00000-0  11382-2 0  9994,2 53594  53.2158 288.4617 0001513  89.0356 271.0809 15.08840247 23943,6917.88,95.438,540.791,538.698,0.0
53594.0,STARLINK-4681,PAYLOAD,2023-02-02 02:24:11,15.08881714,0.0001698,53.2153,284.0023,86.8428,273.2759,0.00084036,0.00013127,0.0,0 STARLINK-4681,1 53594U 22104G   23033.10013230  .00013127  00000-0  84036-3 0  9994,2 53594  53.2153 284.0023 0001698  86.8428 273.2759 15.08881714 24099,6917.753,95.435,540.793,538.443,0.0
53594.0,STARLINK-4681,PAYLOAD,2023-02-02 23:04:11,15.08864838,3.85e-05,53.2203,280.1367,86.6566,273.4471,-0.00028922,-4.891e-05,0.0,0 STARLINK-4681,1 53594U 22104G   23033.96123869 -.00004891  00000-0 -28922-3 0  9990,2 53594  53.2203 280.1367 0000385  86.6566 273.4471 15.08864838 24222,6917.804,95.436,539.936,539.403,0.0
53594.0,STARLINK-4681,PAYLOAD,2023-02-03 02:14:57,15.0886378,0.0001203,53.2174,279.5405,93.1678,266.9452,5.1899e-05,5.39e-06,0.0,0 STARLINK-4681,1 53594U 22104G   23034.09371797  .00000539  00000-0  51899-4 0  9993,2 53594  53.2174 279.5405 0001203  93.1678 266.9452 15.08863780 25403,6917.808,95.436,540.505,538.84,0.0
53594.0,STARLINK-4681,PAYLOAD,2023-02-03 16:33:26,15.08841094,0.0001822,53.2129,276.8641,92.8496,267.2704,-0.00012312,-2.247e-05,0.0,0 STARLINK-4681,1 53594U 22104G   23034.68988439 -.00002247  00000-0 -12312-3 0  9991,2 53594  53.2129 276.8641 0001822  92.8496 267.2704 15.08841094 24335,6917.877,95.437,541.002,538.482,0.0
53594.0,STARLINK-4681,PAYLOAD,2023-02-04 21:10:22,15.08853954,0.0001302,53.2143,271.5116,86.3551,273.759,0.00055101,8.496e-05,0.0,0 STARLINK-4681,1 53594U 22104G   23035.88220138  .00008496  00000-0  55101-3 0  9992,2 53594  53.2143 271.5116 0001302  86.3551 273.7590 15.08853954 24516,6917.838,95.437,540.603,538.802,0.0
53594.0,STARLINK-4681,PAYLOAD,2023-02-04 22:45:45,15.08857401,0.000127,53.2144,271.2143,85.2902,274.8235,0.00062064,9.608e-05,0.0,0 STARLINK-4681,1 53594U 22104G   23035.94844013  .00009608  00000-0  62064-3 0  9995,2 53594  53.2144 271.2143 0001270  85.2902 274.8235 15.08857401 25684,6917.827,95.436,540.571,538.814,0.0
53594.0,STARLINK-4681,PAYLOAD,2023-02-05 14:39:36,15.08845615,0.00018,53.2139,268.2406,84.5959,275.5238,8.9936e-05,1.144e-05,0.0,0 STARLINK-4681,1 53594U 22104G   23036.61084137  .00001144  00000-0  89936-4 0  9998,2 53594  53.2139 268.2406 0001800  84.5959 275.5238 15.08845615 24627,6917.863,95.437,540.973,538.483,0.0
53594.0,STARLINK-4681,PAYLOAD,2023-02-05 21:01:09,15.08840278,0.0001267,53.2138,267.0507,96.0235,264.0901,-4.226e-05,-9.6e-06,0.0,0 STARLINK-4681,1 53594U 22104G   23036.87580062 -.00000960  00000-0 -42260-4 0  9990,2 53594  53.2138 267.0507 0001267  96.0235 264.0901 15.08840278 25820,6917.88,95.438,540.621,538.868,0.0
53594.0,STARLINK-4681,PAYLOAD,2023-02-06 01:47:18,15.08842975,0.0001059,53.2137,266.1591,92.6992,267.4121,0.00011128,1.484e-05,0.0,0 STARLINK-4681,1 53594U 22104G   23037.07452099  .00001484  00000-0  11128-3 0  9999,2 53594  53.2137 266.1591 0001059  92.6992 267.4121 15.08842975 25853,6917.871,95.437,540.469,539.004,0.0
53594.0,STARLINK-4681,PAYLOAD,2023-02-06 20:51:56,15.08843654,0.0001128,53.2141,262.5902,90.0255,270.0866,0.00033837,5.102e-05,0.0,0 STARLINK-4681,1 53594U 22104G   23037.86940250  .00005102  00000-0  33837-3 0  9999,2 53594  53.2141 262.5902 0001128  90.0255 270.0866 15.08843654 24811,6917.869,95.437,540.515,538.954,0.0
53594.0,STARLINK-4681,PAYLOAD,2023-02-07 00:02:42,15.08849387,0.0001057,53.2137,261.9954,91.3561,268.7552,0.00034242,5.167e-05,0.0,0 STARLINK-4681,1 53594U 22104G   23038.00188011  .00005167  00000-0  34242-3 0  9997,2 53594  53.2137 261.9954 0001057  91.3561 268.7552 15.08849387 25996,6917.852,95.437,540.448,538.985,0.0
53594.0,STARLINK-4681,PAYLOAD,2023-02-07 20:42:43,15.08838298,0.0001126,53.2146,258.1293,96.3663,263.7458,0.00018857,2.714e-05,0.0,0 STARLINK-4681,1 53594U 22104G   23038.86300607  .00002714  00000-0  18857-3 0  9997,2 53594  53.2146 258.1293 0001126  96.3663 263.7458 15.08838298 24960,6917.886,95.438,540.53,538.972,0.0
53594.0,STARLINK-4681,PAYLOAD,2023-02-07 22:18:06,15.08841517,0.0001021,53.2147,257.8333,85.984,274.1269,0.00020932,3.045e-05,0.0,0 STARLINK-4681,1 53594U 22104G   23038.92924567  .00003045  00000-0  20932-3 0  9996,2 53594  53.2147 257.8333 0001021  85.9840 274.1269 15.08841517 26132,6917.876,95.437,540.447,539.034,0.0
53594.0,STARLINK-4681,PAYLOAD,2023-02-08 18:58:08,15.08835078,0.0001151,53.214,253.969,70.8565,289.2552,0.00033634,5.068e-05,0.0,0 STARLINK-4681,1 53594U 22104G   23039.79037120  .00005068  00000-0  33634-3 0  9992,2 53594  53.2140 253.9690 0001151  70.8565 289.2552 15.08835078 25102,6917.895,95.438,540.557,538.964,0.0
53594.0,STARLINK-4681,PAYLOAD,2023-02-08 20:33:31,15.08839577,0.0001169,53.2145,253.6704,87.8989,272.2137,0.00049176,7.547e-05,0.0,0 STARLINK-4681,1 53594U 22104G   23039.85661054  .00007547  00000-0  49176-3 0  9990,2 53594  53.2145 253.6704 0001169  87.8989 272.2137 15.08839577 26275,6917.882,95.438,540.555,538.938,0.0
53594.0,STARLINK-4681,PAYLOAD,2023-02-09 01:19:40,15.08846732,0.0001092,53.2139,252.7773,87.2945,272.8172,0.0011942,0.00018772,0.0,0 STARLINK-4681,1 53594U 22104G   23040.05533137  .00018772  00000-0  11942-2 0  9995,2 53594  53.2139 252.7773 0001092  87.2945 272.8172 15.08846732 26305,6917.86,95.437,540.48,538.969,0.0
